FLOCK 2K-32             
1 42870U 17042AX  17290.16619374  .00008156  00000-0  24823-3 0  9993
2 42870  96.9951 194.1341 0009619 272.9296  87.0847 15.34202151 14347
FLOCK 2K-29             
1 42871U 17042AY  17290.42584057  .00008473  00000-0  25749-3 0  9992
2 42871  96.9954 194.3849 0009648 270.8140  89.1999 15.34239669 14382
FLOCK 2K-30             
1 42872U 17042AZ  17290.68600096  .00003719  00000-0  11428-3 0  9990
2 42872  96.9953 194.6310 0009672 271.1233  88.8902 15.34240873 14415
FLOCK 2K-44             
1 42873U 17042BA  17290.55295728  .00009945  00000-0  30209-3 0  9994
2 42873  96.9955 194.5130 0010548 257.4526 102.5538 15.34198833 14409
FLOCK 2K-43             
1 42874U 17042BB  17290.69332428  .00002482  00000-0  78658-4 0  9999
2 42874  96.9953 194.6229 0011070 257.0816 102.9191 15.33551185 14420
FLOCK 2K-41             
1 42875U 17042BC  17290.29061068  .00004433  00000-0  13612-3 0  9991
2 42875  96.9954 194.2645 0010660 260.1757  99.8283 15.34161117 14365
FLOCK 2K-36             
1 42876U 17042BD  17290.54824840  .00006758  00000-0  20592-3 0  9992
2 42876  96.9954 194.5187 0010791 258.3348 101.6685 15.34217981 14404
FLOCK 2K-35             
1 42877U 17042BE  17290.74592979  .00009465  00000-0  28729-3 0  9998
2 42877  96.9953 194.7011 0010717 257.7335 102.2709 15.34233748 14435
FLOCK 2K-34             
1 42878U 17042BF  17290.54691895  .00006316  00000-0  19239-3 0  9992
2 42878  96.9951 194.5155 0010768 258.5397 101.4637 15.34254973 14405
FLOCK 2K-33             
1 42879U 17042BG  17290.54420478  .00004291  00000-0  13164-3 0  9991
2 42879  96.9954 194.5197 0010883 258.4547 101.5476 15.34201871 14400
FLOCK 2K-28             
1 42880U 17042BH  17290.69020809  .00002394  00000-0  75904-4 0  9996
2 42880  96.9955 194.6284 0011116 257.5153 102.4847 15.33569532 14428
LEMUR-2-ARTFISCHER      
1 42881U 17042BJ  17290.55238706  .00004734  00000-0  14626-3 0  9992
2 42881  96.9982 194.5418 0011596 261.2723  98.7208 15.33921719 14397
FLOCK 2K-27             
1 42882U 17042BK  17290.67254405  .00002549  00000-0  79089-4 0  9997
2 42882  96.9953 194.6496 0010956 258.3523 101.6492 15.34200482 14428
FLOCK 2K-26             
1 42883U 17042BL  17290.21319366  .00004610  00000-0  14130-3 0  9992
2 42883  96.9953 194.2189 0011090 259.4205 100.5789 15.34191455 14351
FLOCK 2K-25             
1 42884U 17042BM  17290.74088727  .00004148  00000-0  12735-3 0  9990
2 42884  96.9951 194.7021 0010832 257.4979 102.5054 15.34196668 14436
FLOCK 2K-20             
1 42885U 17042BN  17290.53797011  .00002373  00000-0  73849-4 0  9993
2 42885  96.9954 194.5311 0011071 258.1792 101.8210 15.34176872 14405
FLOCK 2K-19             
1 42886U 17042BP  17290.54098669  .00005934  00000-0  18126-3 0  9990
2 42886  96.9952 194.5282 0011182 257.3427 102.6567 15.34186222 14404
FLOCK 2K-18             
1 42887U 17042BQ  17290.20517161  .00002812  00000-0  86480-4 0  9998
2 42887  96.9954 194.2283 0011357 258.0209 101.9762 15.34404562 14358
FLOCK 2K-17             
1 42888U 17042BR  17290.72975865  .00002675  00000-0  82678-4 0  9997
2 42888  96.9950 194.7153 0011279 256.0376 103.9614 15.34284178 14438
FLOCK 2K-16             
1 42889U 17042BS  17290.40628945  .00003117  00000-0  95924-4 0  9997
2 42889  96.9954 194.4097 0010889 257.5901 102.4125 15.34303929 14384
FLOCK 2K-15             
1 42890U 17042BT  17290.39998984  .00002621  00000-0  80754-4 0  9994
2 42890  96.9958 194.4208 0011289 256.4790 103.5196 15.34406393 14382
FLOCK 2K-13             
1 42891U 17042BU  17290.40598122  .00002728  00000-0  84432-4 0  9992
2 42891  96.9954 194.4078 0011186 254.8700 105.1307 15.34228975 14383
FLOCK 2K-14             
1 42892U 17042BV  17289.94531824  .00002934  00000-0  90306-4 0  9992
2 42892  96.9950 193.9760 0011268 258.2287 101.7693 15.34342888 14314
FLOCK 2K-12             
1 42893U 17042BW  17290.52873371  .00002703  00000-0  82964-4 0  9990
2 42893  96.9956 194.5428 0011308 254.9858 105.0135 15.34497243 14405
FLOCK 2K-11             
1 42894U 17042BX  17290.40280805  .00002782  00000-0  85891-4 0  9991
2 42894  96.9956 194.4147 0011298 253.8204 106.1797 15.34284869 14385
FLOCK 2K-10             
1 42895U 17042BY  17290.20252262  .00002763  00000-0  85158-4 0  9991
2 42895  96.9951 194.2279 0011399 255.2845 104.7136 15.34347039 14351
FLOCK 2K-09             
1 42896U 17042BZ  17290.19947855  .00003008  00000-0  92346-4 0  9999
2 42896  96.9954 194.2359 0011102 253.7499 106.2524 15.34408246 14529
FLOCK 2K-06             
1 42897U 17042CA  17290.49642841  .00011511  00000-0  34936-3 0  9998
2 42897  96.9953 194.4394 0009413 271.2504  88.7662 15.34199412 14398
SILU-1 (SILKROAD 1)     
1 42903U 17021F   17290.58448612  .00024863  00000-0  28205-3 0  9999
2 42903  42.7822 346.8063 0006431  26.3719 124.3461 15.61834995 11876
